#dP2021 12 17  0  0  0.00000000      97 __u+U IGS14 FIT  IAC
## 2188 432000.00000000   900.00000000 59565 0.0000000000000
+  122   C02C03C04C05C06C07C08C09C10C11C12C13C14C16C19C20C21
+        C22C23C24C25C26C27C28C29C30C32C33C34C35C36C37C38C39
+        C40C41C42C43C44C45C46C59C60E01E02E03E04E05E07E08E09
+        E11E12E13E14E15E18E19E21E24E25E26E27E30E31E33E36G01
+        G02G03G04G05G06G07G08G09G10G12G13G14G15G16G17G18G19
+        G20G21G22G23G24G25G26G27G28G29G30G31G32J01J02J03J07
+        R01R02R03R04R05R07R08R09R11R12R13R14R15R17R18R19R20
+        R21R22R24  0  0  0  0  0  0  0  0  0  0  0  0  0  0
++         0  0  0  0  0  0  0  0  0  0  0  0  0  0  0  0  0
++         0  0  0  0  0  0  0  0  0  0  0  0  0  0  0  0  0
++         0  0  0  0  0  0  0  0  0  0  0  0  0  0  0  0  0
++         0  0  0  0  0  0  0  0  0  0  0  0  0  0  0  0  0
++         0  0  0  0  0  0  0  0  0  0  0  0  0  0  0  0  0
++         0  0  0  0  0  0  0  0  0  0  0  0  0  0  0  0  0
++         0  0  0  0  0  0  0  0  0  0  0  0  0  0  0  0  0
++         0  0  0  0  0  0  0  0  0  0  0  0  0  0  0  0  0
%c M  cc GPS ccc cccc cccc cccc cccc ccccc ccccc ccccc ccccc
%c cc cc ccc ccc cccc cccc cccc cccc ccccc ccccc ccccc ccccc
%f  1.2500000  1.025000000  0.00000000000  0.000000000000000
%f  0.0000000  0.000000000  0.00000000000  0.000000000000000
%i    0    0    0    0      0      0      0      0         0
%i    0    0    0    0      0      0      0      0         0
/* INFORMATION & ANALYSIS CENTER (IAC)            FINAL DATA
/* S/V CLOCKS ARE ALIGNED TO GNSS TIME                      
/* G:C1WC2W R:C1PC2P E:C1XC5X C:C2IC6I J:C1CC2S             
/* PCV:IGS14_2186 OL/AL:FES2004  NONE     YN ORB:CoN CLK:CoN
*  2021 12 17  4 15  0.00000000
PC02   4520.419930  41944.921367    566.803075    799.738007
PC03 -14793.208714  39516.259426   -300.791741    381.508272
PC04 -39649.221007  14343.930059   -625.785225    393.204969
PC05  21900.584900  36033.236585    972.990059    335.902771
PC06  -2419.345092  25929.635363  33171.127886    648.647029
PC07 -17047.434820  33433.599976 -19342.120061    112.703383
PC08  -3861.816493  40420.290232 -11086.020149    -16.235322
PC09   4259.881305  28516.046117  31227.184972   -355.022583
PC10 -10020.585022  33098.794883 -24144.807075    137.620124
PC11 -12799.612735 -19260.007665  15718.888635   -328.544371
PC12   5955.745086 -14242.790187  23291.443456   -427.464530
PC13   -597.015729  41462.665788  -6616.646697   -175.644768
PC14  -2667.496361 -16527.421774 -22302.666763    494.873649
PC16  -8080.078882  23046.085185  34513.703087     26.417598
PC19  12491.201385  10569.412332  22622.764147    921.711336
PC20  -5842.727350  19291.924126  19315.419128   -795.304849
PC21  21789.657461 -16906.877309  -4198.074087   -948.568323
PC22  24295.969471  -4577.981503  12918.531500   -965.776424
PC23 -16243.282528  -2476.370851  22557.454141   -963.285483
PC24   1457.394261 -27730.750934  -2953.450566   -951.100052
PC25 -11533.537211 -20745.013711  14687.419994   -808.846000
PC26  11398.149158 -18829.955132 -17188.833488    806.795506
PC27 -15143.784333   8763.875497 -21750.458879    646.417672
PC28 -25268.626878  -6052.101778 -10180.795112      9.805529
PC29  21151.774697  16594.192815  -7486.988432    488.673164
PC30   3787.323148  18162.067237 -20852.188491    488.947685
PC32 -21690.690173  17063.647328   4153.898563   -956.961001
PC33 -12494.860097 -10569.349398 -22605.037501   -960.147716
PC34  -4681.898540 -18398.196515  20440.802333   -512.994374
PC35  25600.499743   5583.959635   9646.967052     49.682825
PC36  10812.576889  21338.288851 -14341.088336   -834.687191
PC37 -12314.713643  17556.184889  17854.523085   -914.768544
PC38  -9908.593441  36067.323948 -19276.736072    197.188898
PC39 -12320.850417  20909.414826  34463.349174     34.363340
PC40 -25602.668055  28681.885009 -17480.340625    227.238102
PC41 -24179.425780   4354.840092 -13181.692280   -916.624443
PC42   6747.464629 -19502.181330 -18742.886949   -932.995409
PC43 -20656.500405 -16939.338303   8029.605271   -953.946567
PC44  15118.302354  -9211.529906  21574.134520    500.756104
PC45  16133.285342   2173.020063 -22664.694600    628.983296
PC46   -536.369609  27824.700410   1700.303453    -64.668775
PC59 -32318.463294  27047.900983    613.281468 999999.999999
PC60   7304.618287  41495.472044  -1507.973378     -0.337848
PE01 -18701.059075   2655.477158  22789.928751   -539.657348
PE02  18756.090883  -2857.522645 -22726.597611    267.368737
PE03  29458.226491    410.576374   2812.333296   -507.177263
PE04 -22851.761199  11670.483066  14752.133069   -922.467462
PE05  18883.646974  12487.418389  19065.322219   -225.883854
PE07   2550.391640 -17133.775259 -24003.709489   -618.429577
PE08  22493.132043 -11881.551916 -15135.185728   5887.594812
PE09  -2258.151749  17000.026440  24122.029059   5427.321267
PE11   4845.232044  25078.633455 -14967.384854   4875.983040
PE12 -11574.482012  11608.094158 -24641.181950   4857.014574
PE13  -4440.884836 -24834.594488  15491.977823    424.747542
PE14 -19486.688608  14874.654028 -21408.955975  -1677.341929
PE15  11568.254763 -11491.225039  24716.257118    774.819980
PE18  12862.220960 -11212.992152  15997.664352  -1845.114037
PE19 -29064.559621  -2101.670045  -5180.314737    454.090510
PE21  -8977.324222 -16496.944542  22882.465653   -705.745091
PE24  -7360.851101  27281.350266  -8773.604293  -1284.027660
PE25   8812.558057  16687.504989 -22793.873217   -557.133261
PE26 -18150.362282 -23076.506513  -3795.302033   -578.736694
PE27   6418.735390 -27191.148994   9809.326369   -188.565339
PE30  18425.349389 -20934.102320  -9963.059092   -115.972960
PE31 -17921.488328  21789.743069   8947.478171   -489.470404
PE33 -20697.989910  -8586.797062 -19328.406743   -461.366661
PE36  17768.878908  23508.832149   2810.039809   -304.927419
PG01  16458.661738   4080.412152  20261.199061    482.006220
PG02 -14964.032806 -21375.965446  -3991.067977   -645.912936
PG03  19104.719249  -6887.870902  16959.494593    -44.265516
PG04  26197.641960    139.738426  -4616.246835   -198.758445
PG05 -12747.655577  -8512.317580 -21853.240643    -64.675832
PG06  -4215.794782 -24463.684944   9424.393172    144.839406
PG07  10130.900388 -12949.927463 -20384.353103    291.719807
PG08  25029.469490   6564.565055  -6740.212992    -48.387296
PG09  20516.992532  -8761.157636 -14510.535090   -360.282440
PG10 -10333.459849  23220.667578   7295.081970   -270.564711
PG12 -18934.082366   3697.291235  17938.529405   -141.913519
PG13 -19740.581086 -13209.166093 -12198.957800    230.674897
PG14  11584.859752 -22860.172787   6851.548563    -56.420248
PG15 -25663.331504  -4204.608724  -6593.020070    -98.586421
PG16   9339.008835  12119.686846 -21924.557077   -441.544835
PG17   7670.847181 -13653.740051  21898.287288    548.552248
PG18  -9353.931802  13901.889956 -20586.209339    278.129514
PG19  -2103.373172 -15159.265827  21468.209666     93.215539
PG20  -5875.911077 -18268.261585 -18482.223086    517.606925
PG21  18956.406588  11938.044212  15392.419466    153.919068
PG22  16591.503542   1626.309610  20808.557978   -439.604807
PG23 -16901.178883  19998.267631  -4181.052933     21.043593
PG24 -18693.125131  -7616.393902  17178.927221    275.002545
PG25 -19189.123298  14899.068121  10126.768406    256.908699
PG26   -528.648831  21610.684495 -15299.628553    165.711580
PG27  18007.719064  12335.916303 -15580.834958      3.995082
PG28   6003.296096 -21990.476992  14347.307860    441.552157
PG29 -23473.148460   4025.959272 -11862.202449   -455.010190
PG30   2985.636988 -21381.389732 -15244.646672   -499.887700
PG31   5407.346825  24814.356928   6768.555367   -155.415256
PG32  -2496.125366  15169.810516  21771.359249    -36.275062
PJ01 -32601.126044  24899.756855  14815.524530     93.456471
PJ02 -31688.599504  26043.442122  14817.268099     -0.399513
PJ03 -24107.926469  18202.151456 -24763.199827     -9.509376
PJ07 -25357.540270  33679.627353     19.266352     -0.030629
PR01 -20999.228684  12479.069733   7356.776773     89.607029
PR02  -4327.621468  12607.874434  21769.186741    503.524887
PR03  13600.106689   5412.475269  20943.632654     48.278668
PR04  23591.036296  -4744.482448   8505.360571    119.180707
PR05  20683.464596 -12177.366525  -8672.580724     84.325623
PR07 -14115.436451  -5044.288285 -20592.079455    -39.151101
PR08 -23591.202222   4846.762479  -8310.534539    -62.578922
PR09   1569.298090 -25137.481741   3819.826621     29.144851
PR11 -11142.869834   1587.427656  22900.276238     48.801689
PR12  -9462.828899  19434.462526  13547.753308    287.158025
PR13  -2178.293675  25259.342310  -2800.626588    -15.691428
PR14   6725.672519  16058.644977 -18637.414388     72.181483
PR15  11340.526963  -2204.555589 -22724.654113     99.535287
PR17  18832.928579  16949.832433  -2741.065393    484.254432
PR18  19866.936821   8474.264584  13631.640959    100.753244
PR19  11295.599597  -3475.494621  22610.614296   -170.964958
PR20  -6106.132856 -16309.726912  18635.417794    -61.333460
PR21 -19289.494572 -16659.714649   1366.307648   -262.805241
PR22 -19455.463655  -7868.108259 -14437.794818   -151.958364
PR24   6851.487937  16715.123093 -17977.457419     71.538881
EOF
